OBJECT_NAME,OBJECT_ID,EPOCH,MEAN_MOTION,ECCENTRICITY,INCLINATION,RA_OF_ASC_NODE,ARG_OF_PERICENTER,MEAN_ANOMALY,EPHEMERIS_TYPE,CLASSIFICATION_TYPE,NORAD_CAT_ID,ELEMENT_SET_NO,REV_AT_EPOCH,BSTAR,MEAN_MOTION_DOT,MEAN_MOTION_DDOT
STARLINK-4174,2022-086AL,2026-06-05T06:27:11.206080,15.08833124,.000129,53.1795,150.9374,87.7758,272.3381,0,U,53276,999,21441,-.78117E-5,-.412E-5,0
STARLINK-4178,2022-086AM,2026-06-05T06:05:59.627040,15.08836841,.0001258,53.1806,151.0294,85.3419,274.7716,0,U,53277,999,21441,.25544E-4,.119E-5,0
STARLINK-4180,2022-086AN,2026-06-05T06:11:17.343168,15.08836175,.0001076,53.1792,150.9857,65.3158,294.7945,0,U,53278,999,21441,.2582E-4,.123E-5,0
STARLINK-4169,2022-086AQ,2026-06-06T02:33:21.395232,15.08843265,.00010753,53.1769,101.8427,94.6983,265.4131,0,U,53280,999,21518,.7557341E-5,-.168E-5,0
STARLINK-4164,2022-086AS,2026-06-05T06:00:41.416704,15.08837098,.0001097,53.1784,151.0192,81.0893,279.0223,0,U,53282,999,21441,.14998E-4,-.49E-6,0
STARLINK-4175,2022-086AT,2026-06-05T07:20:11.760288,15.08842337,.00006291,53.1797,150.7629,62.5850,297.5206,0,U,53283,999,21442,.67110752E-4,.781E-5,0
STARLINK-4173,2022-086AV,2026-06-05T08:39:39.466944,15.08839381,.00008283,53.1772,150.5100,123.6603,236.4468,0,U,53285,999,21442,.45750789E-4,.44E-5,0
STARLINK-4165,2022-086AW,2026-06-05T16:04:43.769856,15.08845856,.00024744,53.1795,148.8308,99.9262,260.2009,0,U,53286,999,21447,.10661334E-3,.1409E-4,0
STARLINK-4107,2022-086AX,2026-06-05T06:53:41.055072,15.08835649,.0001238,53.1786,150.8554,84.0196,276.0937,0,U,53287,999,21441,-.60725E-5,-.385E-5,0
STARLINK-4162,2022-086AY,2026-06-04T05:43:24.661632,15.08836129,.00013666,53.1796,155.5570,101.0220,259.0925,0,U,53288,999,21425,.9946898E-5,-.13E-5,0
STARLINK-4176,2022-086AZ,2026-06-05T15:52:14.594592,15.08831789,.00012688,53.1786,144.3144,82.5891,277.5245,0,U,53289,999,21453,-.8394341E-5,-.421E-5,0
STARLINK-4149,2022-086BA,2026-06-05T06:57:35.239680,15.08997411,.0001243,53.2141,150.8612,55.6303,304.4807,0,U,53290,999,21441,.16573E-3,.2362E-4,0
STARLINK-4166,2022-086BB,2026-06-05T05:32:10.184352,15.08839392,.0001166,53.1776,145.8962,92.5684,267.5441,0,U,53291,999,21447,.4607E-4,.445E-5,0
STARLINK-4159,2022-086BC,2026-06-05T07:14:55.128480,15.08832904,.00018272,53.1774,150.9494,42.9532,317.1602,0,U,53292,999,21441,.13264868E-4,-.77E-6,0
STARLINK-4148,2022-086BD,2026-06-05T15:39:37.828224,15.08832979,.00012036,53.1797,139.2026,66.4118,293.7000,0,U,53293,999,21460,.62099184E-4,.7E-5,0
STARLINK-4146,2022-086BE,2026-06-05T16:06:06.774336,15.08819921,.00013384,53.1799,138.9650,97.1264,262.9880,0,U,53294,999,21465,.14397875E-3,.2003E-4,0
STARLINK-4522,2022-097A,2026-06-06T02:06:15.560640,15.08834433,.00011706,53.1766,87.2575,88.8245,271.2881,0,U,53388,999,21219,.18917671E-4,.13E-6,0
STARLINK-4523,2022-097B,2026-06-06T01:55:39.637632,15.08836707,.00014006,53.1765,87.2877,87.0454,273.0698,0,U,53389,999,21201,-.25228926E-4,-.689E-5,0
STARLINK-4517,2022-097C,2026-06-06T02:00:57.461760,15.08836469,.00015001,53.1768,87.2706,94.3762,265.7401,0,U,53390,999,21216,.19835403E-4,.28E-6,0
STARLINK-4521,2022-097D,2026-06-06T01:50:21.467904,15.08840524,.00011205,53.1758,87.3044,85.8622,274.2497,0,U,53391,999,21201,.4311966E-4,.398E-5,0
STARLINK-4535,2022-097E,2026-06-05T12:56:41.081568,15.08834208,.00011117,53.1763,89.7176,78.1403,281.9713,0,U,53392,999,21193,.20144354E-4,.33E-6,0
STARLINK-4530,2022-097F,2026-06-06T01:45:03.596256,15.08844309,.00013387,53.1776,87.3202,87.0198,273.0947,0,U,53393,999,21201,.27245249E-4,.146E-5,0
STARLINK-4544,2022-097G,2026-06-05T11:43:45.205824,15.08832442,.00013351,53.1762,79.5597,106.5755,253.5383,0,U,53394,999,21207,-.1439186E-4,-.517E-5,0
STARLINK-4534,2022-097H,2026-06-06T01:35:50.470368,15.08840625,.00011017,53.1761,87.3564,100.2350,259.8766,0,U,53395,999,21185,.10182288E-3,.1333E-4,0
STARLINK-4524,2022-097J,2026-06-05T14:05:34.361664,15.08834820,.00011633,53.1759,89.5069,96.5429,263.5695,0,U,53396,999,21178,.6751857E-4,.787E-5,0
STARLINK-4515,2022-097K,2026-06-05T12:46:05.406528,15.08819515,.00011109,53.1766,89.7531,105.9127,254.1987,0,U,53397,999,21177,.24166274E-3,.3558E-4,0
STARLINK-4512,2022-097L,2026-06-06T02:38:03.400512,15.08837444,.00013012,53.1749,87.1555,64.6441,295.4685,0,U,53398,999,21186,.10233315E-3,.1341E-4,0
STARLINK-4528,2022-097M,2026-06-05T12:35:29.199264,15.08831495,.00012281,53.1767,89.7879,103.1368,256.9760,0,U,53399,999,21177,.52840121E-4,.553E-5,0
STARLINK-4520,2022-097N,2026-06-06T02:22:09.542784,15.08844645,.00015291,53.1753,87.2078,92.4076,267.7090,0,U,53400,999,21186,-.10436809E-3,-.1949E-4,0
STARLINK-4525,2022-097P,2026-06-05T02:52:34.746240,15.08800591,.00010407,53.1775,91.6056,92.7837,267.3273,0,U,53401,999,21171,.59963407E-3,.9258E-4,0
STARLINK-4499,2022-097Q,2026-06-05T02:26:04.190496,15.08858085,.00013164,53.1771,91.6942,95.5292,264.5850,0,U,53402,999,21171,-.20937177E-3,-.362E-4,0
STARLINK-4507,2022-097R,2026-06-06T01:46:29.763840,15.08854258,.00014405,53.1758,87.6625,95.0243,265.0913,0,U,53403,999,21185,-.11547917E-3,-.2126E-4,0
STARLINK-4509,2022-097S,2026-06-06T01:53:03.348672,15.08810494,.00012714,53.1755,77.2293,100.4122,259.7013,0,U,53404,999,21199,.37819397E-3,.5731E-4,0
STARLINK-4510,2022-097T,2026-06-06T02:11:33.426240,15.08834034,.0001259,53.1758,87.2389,86.8435,273.2701,0,U,53405,999,21186,.80794013E-4,.998E-5,0
STARLINK-4533,2022-097U,2026-06-06T01:35:47.283936,15.08832760,.00013511,53.1761,77.3514,87.8736,272.2410,0,U,53406,999,21199,.51816402E-4,.537E-5,0
STARLINK-4491,2022-097W,2026-06-06T01:51:41.155488,15.08828573,.00014785,53.1762,77.3055,122.2495,237.8640,0,U,53408,999,21199,.13218576E-3,.1816E-4,0
STARLINK-4490,2022-097X,2026-06-06T01:42:26.560800,15.08839044,.00013892,53.1750,67.5191,97.5352,262.5798,0,U,53409,999,21213,.79854923E-4,.983E-5,0
STARLINK-4492,2022-097Y,2026-06-06T01:46:23.465280,15.08814253,.00011784,53.1750,77.3167,88.6203,271.4923,0,U,53410,999,21199,.34184307E-3,.5153E-4,0
STARLINK-4497,2022-097Z,2026-06-06T01:56:59.184384,15.08834190,.00011474,53.1753,77.2836,100.7945,259.3176,0,U,53411,999,21199,.88284345E-4,.1117E-4,0
STARLINK-4496,2022-097AA,2026-06-05T01:39:43.388352,15.08832237,.00011702,53.1771,81.8322,77.0320,283.0802,0,U,53412,999,21184,.73158401E-4,.876E-5,0
STARLINK-4500,2022-097AB,2026-06-05T00:14:54.951936,15.08830916,.00014679,53.1761,82.1007,82.0431,278.0728,0,U,53413,999,21183,.62595699E-4,.708E-5,0
STARLINK-4304,2022-097AC,2026-06-05T01:34:24.326112,15.08836418,.00011852,53.1780,81.8491,90.0317,270.0810,0,U,53414,999,21183,.18585511E-4,.8E-7,0
STARLINK-4479,2022-097AD,2026-06-06T01:19:53.342400,15.08836115,.00010441,53.1765,77.3973,92.3180,267.7931,0,U,53415,999,21196,.1034759E-3,.1359E-4,0
STARLINK-4480,2022-097AE,2026-06-06T00:58:42.872736,15.08815845,.00018596,53.1776,77.4168,97.4753,262.6450,0,U,53416,999,21196,.36787821E-3,.5568E-4,0
STARLINK-4484,2022-097AF,2026-06-06T01:14:35.600352,15.08837149,.00007506,53.1823,77.4114,117.9157,242.1911,0,U,53417,999,21196,.4873786E-3,.7477E-4,0
STARLINK-4481,2022-097AG,2026-06-05T11:34:28.239456,15.08834689,.0001218,53.1790,69.5368,94.5692,265.5439,0,U,53418,999,21205,-.9805722E-5,-.444E-5,0
STARLINK-4476,2022-097AH,2026-06-06T01:09:18.027648,15.08836143,.00011813,53.1770,77.4320,86.9735,273.1392,0,U,53419,999,21196,-.77161575E-4,-.1516E-4,0
STARLINK-4552,2022-097AJ,2026-06-05T01:02:38.594400,15.08828604,.00019198,53.1780,81.9442,55.7532,304.3641,0,U,53420,999,21181,.2255679E-4,.71E-6,0
STARLINK-4545,2022-097AK,2026-06-06T01:03:59.369760,15.08842945,.00012995,53.1779,77.4490,77.5469,282.5668,0,U,53421,999,21196,.73812757E-4,.887E-5,0
STARLINK-4546,2022-097AL,2026-06-05T00:52:00.475104,15.08820357,.0001385,53.1772,81.9800,89.2451,270.8699,0,U,53422,999,21183,.29766963E-3,.445E-4,0
STARLINK-4539,2022-097AM,2026-06-06T01:00:04.250304,15.08841417,.0001162,53.1782,77.4700,85.7960,274.3165,0,U,53423,999,21196,.54940357E-4,.587E-5,0
STARLINK-4532,2022-097AN,2026-06-05T11:49:05.627136,15.08856786,.00019212,53.1888,79.9329,71.5036,288.6164,0,U,53424,999,21190,.20486925E-3,.2975E-4,0
STARLINK-4531,2022-097AP,2026-06-05T00:57:17.976960,15.08849684,.00023265,53.1795,81.9695,157.3120,202.7975,0,U,53425,999,21180,-.15856554E-4,-.541E-5,0
STARLINK-4558,2022-097AQ,2026-06-05T11:18:40.326048,15.08818839,.00010879,53.1745,70.1781,102.9066,257.2047,0,U,53426,999,21203,.2095324E-3,.3047E-4,0
STARLINK-4543,2022-097AT,2026-06-05T11:13:22.320480,15.08829071,.00011043,53.1763,70.1567,96.4435,263.6682,0,U,53429,999,21203,.30862873E-4,.203E-5,0
STARLINK-4538,2022-097AU,2026-06-06T01:21:13.428288,15.08833701,.00014042,53.1758,67.4350,84.3774,275.7378,0,U,53430,999,21210,.87033463E-4,.1097E-4,0
STARLINK-4548,2022-097AV,2026-06-05T11:39:46.453248,15.08834738,.00010753,53.1761,69.5698,105.7680,254.3431,0,U,53431,999,21204,.35472647E-4,.277E-5,0
STARLINK-4557,2022-097AW,2026-06-05T21:33:18.561600,15.08835730,.00012234,53.1768,67.8699,82.1164,277.9967,0,U,53432,999,21210,.53102633E-4,.557E-5,0
STARLINK-4549,2022-097AX,2026-06-06T01:15:55.111680,15.08816871,.00012073,53.1752,67.4097,88.6824,271.4306,0,U,53433,999,21210,.35846607E-3,.5418E-4,0
STARLINK-4498,2022-097AY,2026-06-06T06:00:02.000160,15.89168655,.00002231,53.2162,42.5228,60.9692,263.6607,0,U,53434,999,589,.1991392E-2,.628532E-2,0
STARLINK-4542,2022-097AZ,2026-06-05T21:38:37.208256,15.08833293,.00013018,53.1761,67.8943,85.1360,274.9780,0,U,53435,999,21208,.15701954E-4,-.38E-6,0
STARLINK-4527,2022-097BA,2026-06-06T00:33:27.948096,15.08835713,.00012302,53.1780,67.2255,94.2475,265.8657,0,U,53436,999,21212,.51419714E-4,.53E-5,0
STARLINK-4526,2022-097BC,2026-06-05T05:23:34.218240,15.08823917,.0002162,53.1853,70.7723,134.0520,226.0650,0,U,53438,999,21201,.43738E-3,.6677E-4,0
STARLINK-4519,2022-097BD,2026-06-05T21:34:39.612576,15.08850276,.00014512,53.1773,67.8788,96.9867,263.1290,0,U,53439,999,21211,.16049519E-3,.2268E-4,0
